{
  "type": "FeatureCollection",
  "features": [
    {
      "type": "Feature",
      "properties": {
        "norad_id": 33924,
        "name": "COSMOS 2251 DEB",
        "group": "cosmos-2251-debris",
        "lat": -39.31640185017236,
        "lon": -92.29180874454875,
        "alt_km": 776.5430574354768,
        "timestamp": "2025-12-05T18:53:13.674759+00:00",
        "meta_object_name": "COSMOS 2251 DEB",
        "meta_object_id": "1993-036ED",
        "meta_epoch": "2025-12-05T06:37:46.068096",
        "meta_mean_motion": 13.50201633,
        "meta_eccentricity": 0.04040681,
        "meta_inclination": 73.9132,
        "meta_ra_of_asc_node": 282.1982,
        "meta_arg_of_pericenter": 318.9581,
        "meta_mean_anomaly": 38.1754,
        "meta_ephemeris_type": 0,
        "meta_classification_type": "U",
        "meta_norad_cat_id": 33924,
        "meta_element_set_no": 999,
        "meta_rev_at_epoch": 82638,
        "meta_bstar": 0.0019240168,
        "meta_mean_motion_dot": 2.017e-05,
        "meta_mean_motion_ddot": 0,
        "tle_line1": "1 33924U 93036ED  25339.27622764  .00002017  00000+0  19240-2 0  9997",
        "tle_line2": "2 33924  73.9132 282.1982 0404068 318.9581  38.1754 13.50201633826386"
      },
      "geometry": {
        "type": "Point",
        "coordinates": [
          -92.29180874454875,
          -39.31640185017236
        ]
      }
    },
    {
      "type": "Feature",
      "properties": {
        "norad_id": 33928,
        "name": "COSMOS 2251 DEB",
        "group": "cosmos-2251-debris",
        "lat": -36.86195615698623,
        "lon": 53.16983300576881,
        "alt_km": 706.7240542835325,
        "timestamp": "2025-12-05T18:53:13.674769+00:00",
        "meta_object_name": "COSMOS 2251 DEB",
        "meta_object_id": "1993-036EH",
        "meta_epoch": "2025-12-05T05:47:33.523872",
        "meta_mean_motion": 14.47382764,
        "meta_eccentricity": 0.00610903,
        "meta_inclination": 73.9259,
        "meta_ra_of_asc_node": 66.6818,
        "meta_arg_of_pericenter": 2.4507,
        "meta_mean_anomaly": 357.6938,
        "meta_ephemeris_type": 0,
        "meta_classification_type": "U",
        "meta_norad_cat_id": 33928,
        "meta_element_set_no": 999,
        "meta_rev_at_epoch": 88536,
        "meta_bstar": 0.00044992702,
        "meta_mean_motion_dot": 1.66e-05,
        "meta_mean_motion_ddot": 0,
        "tle_line1": "1 33928U 93036EH  25339.24136023  .00001660  00000+0  44993-3 0  9993",
        "tle_line2": "2 33928  73.9259  66.6818 0061090   2.4507 357.6938 14.47382764885368"
      },
      "geometry": {
        "type": "Point",
        "coordinates": [
          53.16983300576881,
          -36.86195615698623
        ]
      }
    },
    {
      "type": "Feature",
      "properties": {
        "norad_id": 33932,
        "name": "COSMOS 2251 DEB",
        "group": "cosmos-2251-debris",
        "lat": -42.515545311488495,
        "lon": -46.475441851961676,
        "alt_km": 769.537934037462,
        "timestamp": "2025-12-05T18:53:13.674779+00:00",
        "meta_object_name": "COSMOS 2251 DEB",
        "meta_object_id": "1993-036EM",
        "meta_epoch": "2025-12-05T07:24:43.566048",
        "meta_mean_motion": 14.38723454,
        "meta_eccentricity": 0.00349541,
        "meta_inclination": 74.0342,
        "meta_ra_of_asc_node": 329.6229,
        "meta_arg_of_pericenter": 47.9129,
        "meta_mean_anomaly": 312.4989,
        "meta_ephemeris_type": 0,
        "meta_classification_type": "U",
        "meta_norad_cat_id": 33932,
        "meta_element_set_no": 999,
        "meta_rev_at_epoch": 87891,
        "meta_bstar": 0.00089313085,
        "meta_mean_motion_dot": 2.736e-05,
        "meta_mean_motion_ddot": 0,
        "tle_line1": "1 33932U 93036EM  25339.30883757  .00002736  00000+0  89313-3 0  9998",
        "tle_line2": "2 33932  74.0342 329.6229 0034954  47.9129 312.4989 14.38723454878912"
      },
      "geometry": {
        "type": "Point",
        "coordinates": [
          -46.475441851961676,
          -42.515545311488495
        ]
      }
    },
    {
      "type": "Feature",
      "properties": {
        "norad_id": 33933,
        "name": "COSMOS 2251 DEB",
        "group": "cosmos-2251-debris",
        "lat": -60.3142569686898,
        "lon": 42.782935590731306,
        "alt_km": 829.7946680613031,
        "timestamp": "2025-12-05T18:53:13.674789+00:00",
        "meta_object_name": "COSMOS 2251 DEB",
        "meta_object_id": "1993-036EN",
        "meta_epoch": "2025-12-05T07:27:54.813312",
        "meta_mean_motion": 14.33469604,
        "meta_eccentricity": 0.00708243,
        "meta_inclination": 74.0892,
        "meta_ra_of_asc_node": 73.6749,
        "meta_arg_of_pericenter": 84.3248,
        "meta_mean_anomaly": 276.5974,
        "meta_ephemeris_type": 0,
        "meta_classification_type": "U",
        "meta_norad_cat_id": 33933,
        "meta_element_set_no": 999,
        "meta_rev_at_epoch": 87678,
        "meta_bstar": 0.00056954225,
        "meta_mean_motion_dot": 1.593e-05,
        "meta_mean_motion_ddot": 0,
        "tle_line1": "1 33933U 93036EN  25339.31105108  .00001593  00000+0  56954-3 0  9992",
        "tle_line2": "2 33933  74.0892  73.6749 0070824  84.3248 276.5974 14.33469604876785"
      },
      "geometry": {
        "type": "Point",
        "coordinates": [
          42.782935590731306,
          -60.3142569686898
        ]
      }
    },
    {
      "type": "Feature",
      "properties": {
        "norad_id": 33934,
        "name": "COSMOS 2251 DEB",
        "group": "cosmos-2251-debris",
        "lat": 45.03164188378756,
        "lon": -82.83381994524832,
        "alt_km": 695.0159786942841,
        "timestamp": "2025-12-05T18:53:13.674804+00:00",
        "meta_object_name": "COSMOS 2251 DEB",
        "meta_object_id": "1993-036EP",
        "meta_epoch": "2025-12-05T01:49:26.146848",
        "meta_mean_motion": 14.58997755,
        "meta_eccentricity": 0.00159704,
        "meta_inclination": 74.0372,
        "meta_ra_of_asc_node": 115.1714,
        "meta_arg_of_pericenter": 238.8119,
        "meta_mean_anomaly": 121.1482,
        "meta_ephemeris_type": 0,
        "meta_classification_type": "U",
        "meta_norad_cat_id": 33934,
        "meta_element_set_no": 999,
        "meta_rev_at_epoch": 88627,
        "meta_bstar": 0.002088416,
        "meta_mean_motion_dot": 9.808e-05,
        "meta_mean_motion_ddot": 0,
        "tle_line1": "1 33934U 93036EP  25339.07599707  .00009808  00000+0  20884-2 0  9997",
        "tle_line2": "2 33934  74.0372 115.1714 0015970 238.8119 121.1482 14.58997755886271"
      },
      "geometry": {
        "type": "Point",
        "coordinates": [
          -82.83381994524832,
          45.03164188378756
        ]
      }
    },
    {
      "type": "Feature",
      "properties": {
        "norad_id": 33936,
        "name": "COSMOS 2251 DEB",
        "group": "cosmos-2251-debris",
        "lat": 29.830684674830128,
        "lon": 60.23019721987576,
        "alt_km": 710.4542399674892,
        "timestamp": "2025-12-05T18:53:13.674814+00:00",
        "meta_object_name": "COSMOS 2251 DEB",
        "meta_object_id": "1993-036ER",
        "meta_epoch": "2025-12-05T07:14:02.655168",
        "meta_mean_motion": 14.60192332,
        "meta_eccentricity": 0.00280283,
        "meta_inclination": 74.0197,
        "meta_ra_of_asc_node": 51.6998,
        "meta_arg_of_pericenter": 208.4357,
        "meta_mean_anomaly": 151.5281,
        "meta_ephemeris_type": 0,
        "meta_classification_type": "U",
        "meta_norad_cat_id": 33936,
        "meta_element_set_no": 999,
        "meta_rev_at_epoch": 88781,
        "meta_bstar": 0.0014951048,
        "meta_mean_motion_dot": 7.222e-05,
        "meta_mean_motion_ddot": 0,
        "tle_line1": "1 33936U 93036ER  25339.30141962  .00007222  00000+0  14951-2 0  9997",
        "tle_line2": "2 33936  74.0197  51.6998 0028028 208.4357 151.5281 14.60192332887817"
      },
      "geometry": {
        "type": "Point",
        "coordinates": [
          60.23019721987576,
          29.830684674830128
        ]
      }
    },
    {
      "type": "Feature",
      "properties": {
        "norad_id": 33938,
        "name": "COSMOS 2251 DEB",
        "group": "cosmos-2251-debris",
        "lat": -39.478451013790846,
        "lon": 53.78574174315845,
        "alt_km": 740.569404449885,
        "timestamp": "2025-12-05T18:53:13.674824+00:00",
        "meta_object_name": "COSMOS 2251 DEB",
        "meta_object_id": "1993-036ET",
        "meta_epoch": "2025-12-05T03:38:39.541056",
        "meta_mean_motion": 14.46757694,
        "meta_eccentricity": 0.00168691,
        "meta_inclination": 74.0459,
        "meta_ra_of_asc_node": 221.342,
        "meta_arg_of_pericenter": 304.0866,
        "meta_mean_anomaly": 210.8506,
        "meta_ephemeris_type": 0,
        "meta_classification_type": "U",
        "meta_norad_cat_id": 33938,
        "meta_element_set_no": 999,
        "meta_rev_at_epoch": 88290,
        "meta_bstar": 0.00099198787,
        "meta_mean_motion_dot": 3.571e-05,
        "meta_mean_motion_ddot": 0,
        "tle_line1": "1 33938U 93036ET  25339.15184654  .00003571  00000+0  99199-3 0  9998",
        "tle_line2": "2 33938  74.0459 221.3420 0016869 304.0866 210.8506 14.46757694882900"
      },
      "geometry": {
        "type": "Point",
        "coordinates": [
          53.78574174315845,
          -39.478451013790846
        ]
      }
    }
  ]
}